*******************************************************************************
Ephemeris / WWW_USER Mon Mar 24 09:32:40 2025 Pasadena, USA      / Horizons    
*******************************************************************************
Target body name: (2018 KH3)                      {source: JPL#10}
Center body name: Earth (399)                     {source: DE441}
Center-site name: Mauna Kea
*******************************************************************************
Start time      : A.D. 2019-Jan-05 04:06:00.0000 UT      
Stop  time      : A.D. 2019-Jan-05 16:47:00.0000 UT      
Step-size       : 1 minutes
*******************************************************************************
Target pole/equ : undefined
Target radii    : undefined                                                    
Center geodetic : 204.5278, 19.8260847, 4.21024   {E-lon(deg),Lat(deg),Alt(km)}
Center cylindric: 204.5278, 6006.35451, 2151.0229 {E-lon(deg),Dxy(km),Dz(km)}
Center pole/equ : ITRF93                          {East-longitude positive}
Center radii    : 6378.137, 6378.137, 6356.752 km {Equator_a, b, pole_c}       
Target primary  : Sun
Vis. interferer : MOON (R_eq= 1737.400) km        {source: DE441}
Rel. light bend : Sun                             {source: DE441}
Rel. lght bnd GM: 1.3271E+11 km^3/s^2                                          
Small-body perts: Yes                             {source: SB441-N16}
Atmos refraction: NO (AIRLESS)
RA format       : HMS
Time format     : CAL 
Calendar mode   : Mixed Julian/Gregorian
RTS-only print  : NO       
EOP file        : eop.250321.p250617                                           
EOP coverage    : DATA-BASED 1962-JAN-20 TO 2025-MAR-21. PREDICTS-> 2025-JUN-16
Units conversion: 1 au= 149597870.700 km, c= 299792.458 km/s, 1 day= 86400.0 s 
Table cut-offs 1: Elevation (-90.0deg=NO ),Airmass (>38.000=NO), Daylight (YES)
Table cut-offs 2: Solar elongation (  0.0,180.0=NO ),Local Hour Angle( 0.0=NO )
Table cut-offs 3: RA/DEC angular rate (     0.0=NO )                           
*******************************************************************************
Initial IAU76/J2000 heliocentric ecliptic osculating elements (au, days, deg.):
  EPOCH=  2458288.5 ! 2018-Jun-19.00 (TDB)         Residual RMS= .22282        
   EC= .960925581819226    QR= 3.698978437965829   TP= 2457875.4618278281      
   OM= 293.0370088641419   W=  320.1514802298502   IN= 46.86534913190896       
  Equivalent ICRF heliocentric cartesian coordinates (au, au/d):
   X= 3.123713088662113E+00  Y=-4.022617727101489E+00  Z=-9.776572180429732E-02
  VX= 7.160289219203867E-03 VY=-1.601856640773144E-03 VZ= 7.695430476273978E-03
Asteroid physical parameters (km, seconds, rotational period in hours):        
   GM= n.a.                RAD= n.a.               ROTPER= n.a.                
   H= 13.69                G= .150                 B-V= n.a.                   
                           ALBEDO= n.a.            STYP= n.a.                  
*******************************************************************************
 Date__(UT)__HR:MN     R.A._________(ICRF)_________DEC
******************************************************
$$SOE
 2019-Jan-05 16:24 N   20 50 57.951646 +08 41 39.49338
 2019-Jan-05 16:25 N   20 50 57.978658 +08 41 39.64286
 2019-Jan-05 16:26 N   20 50 58.005668 +08 41 39.79235
 2019-Jan-05 16:27 N   20 50 58.032677 +08 41 39.94184
 2019-Jan-05 16:28 N   20 50 58.059684 +08 41 40.09133
 2019-Jan-05 16:29 N   20 50 58.086691 +08 41 40.24082
 2019-Jan-05 16:30 N   20 50 58.113696 +08 41 40.39032
 2019-Jan-05 16:31 N   20 50 58.140699 +08 41 40.53982
 2019-Jan-05 16:32 N   20 50 58.167702 +08 41 40.68932
 2019-Jan-05 16:33 Nm  20 50 58.194703 +08 41 40.83883
 2019-Jan-05 16:34 Nm  20 50 58.221702 +08 41 40.98834
 2019-Jan-05 16:35 Cm  20 50 58.248701 +08 41 41.13785
 2019-Jan-05 16:36 Cm  20 50 58.275698 +08 41 41.28737
 2019-Jan-05 16:37 Cm  20 50 58.302693 +08 41 41.43689
 2019-Jan-05 16:38 Cm  20 50 58.329688 +08 41 41.58641
 2019-Jan-05 16:39 Cm  20 50 58.356681 +08 41 41.73594
 2019-Jan-05 16:40 Cm  20 50 58.383672 +08 41 41.88546
 2019-Jan-05 16:41 Cm  20 50 58.410663 +08 41 42.03500
 2019-Jan-05 16:42 Cm  20 50 58.437652 +08 41 42.18453
 2019-Jan-05 16:43 Cm  20 50 58.464639 +08 41 42.33407
 2019-Jan-05 16:44 Cm  20 50 58.491625 +08 41 42.48361
 2019-Jan-05 16:45 Cm  20 50 58.518610 +08 41 42.63315
 2019-Jan-05 16:46 Cm  20 50 58.545594 +08 41 42.78270
 2019-Jan-05 16:47 Cm  20 50 58.572576 +08 41 42.93225
